[{"OBJECT_NAME":"STARLINK-5042","OBJECT_ID":"2022-119P","EPOCH":"2026-03-09T23:48:31.662432","MEAN_MOTION":15.08836566,"ECCENTRICITY":0.00012098,"INCLINATION":53.2187,"RA_OF_ASC_NODE":322.5242,"ARG_OF_PERICENTER":96.2694,"MEAN_ANOMALY":263.8436,"EPHEMERIS_TYPE":0,"CLASSIFICATION_TYPE":"U","NORAD_CAT_ID":53899,"ELEMENT_SET_NO":999,"REV_AT_EPOCH":19173,"BSTAR":-4.44313e-6,"MEAN_MOTION_DOT":-3.59e-6,"MEAN_MOTION_DDOT":0},{"OBJECT_NAME":"YAM-8","OBJECT_ID":"2025-052AW","EPOCH":"2026-03-09T17:32:32.161056","MEAN_MOTION":15.10898939,"ECCENTRICITY":0.00023693,"INCLINATION":97.7023,"RA_OF_ASC_NODE":329.5345,"ARG_OF_PERICENTER":152.6796,"MEAN_ANOMALY":207.4558,"EPHEMERIS_TYPE":0,"CLASSIFICATION_TYPE":"U","NORAD_CAT_ID":63254,"ELEMENT_SET_NO":999,"REV_AT_EPOCH":5424,"BSTAR":0.00047267461,"MEAN_MOTION_DOT":7.81e-5,"MEAN_MOTION_DDOT":0}]
